[{"OBJECT_NAME":"STARLINK-5914","OBJECT_ID":"2023-037AD","EPOCH":"2026-03-09T22:29:23.957376","MEAN_MOTION":14.98331107,"ECCENTRICITY":0.0002977,"INCLINATION":69.9977,"RA_OF_ASC_NODE":283.978,"ARG_OF_PERICENTER":268.6395,"MEAN_ANOMALY":91.4423,"EPHEMERIS_TYPE":0,"CLASSIFICATION_TYPE":"U","NORAD_CAT_ID":55941,"ELEMENT_SET_NO":999,"REV_AT_EPOCH":16401,"BSTAR":-1.239662e-5,"MEAN_MOTION_DOT":-2.41e-6,"MEAN_MOTION_DDOT":0},{"OBJECT_NAME":"GEESAT-2 04","OBJECT_ID":"2024-023D","EPOCH":"2026-03-09T22:58:49.443744","MEAN_MOTION":14.96681304,"ECCENTRICITY":0.00064656,"INCLINATION":49.992,"RA_OF_ASC_NODE":72.838,"ARG_OF_PERICENTER":6.7244,"MEAN_ANOMALY":353.3785,"EPHEMERIS_TYPE":0,"CLASSIFICATION_TYPE":"U","NORAD_CAT_ID":58908,"ELEMENT_SET_NO":999,"REV_AT_EPOCH":11446,"BSTAR":0.0002767609,"MEAN_MOTION_DOT":2.943e-5,"MEAN_MOTION_DDOT":0}]
